CCSDS_OMM_VERS = 2.0
CREATION_DATE  = 
ORIGINATOR     = 

OBJECT_NAME    = ALOS-2
OBJECT_ID      = 2014-029A
CENTER_NAME    = EARTH
REF_FRAME      = TEME
TIME_SYSTEM    = UTC
MEAN_ELEMENT_THEORY = SGP/SGP4

EPOCH          = 2026-03-19T20:43:16.866624
MEAN_MOTION    = 14.79412057
ECCENTRICITY   = .0001797
INCLINATION    = 97.9195
RA_OF_ASC_NODE = 177.3141
ARG_OF_PERICENTER = 113.8460
MEAN_ANOMALY   = 246.2940

EPHEMERIS_TYPE = 0
CLASSIFICATION_TYPE = U
NORAD_CAT_ID   = 39766
ELEMENT_SET_NO = 999
REV_AT_EPOCH   = 63837
BSTAR          = .19359E-3
MEAN_MOTION_DOT = .1393E-4
MEAN_MOTION_DDOT = 0

CCSDS_OMM_VERS = 2.0
CREATION_DATE  = 
ORIGINATOR     = 

OBJECT_NAME    = YAOGAN-29
OBJECT_ID      = 2015-069A
CENTER_NAME    = EARTH
REF_FRAME      = TEME
TIME_SYSTEM    = UTC
MEAN_ELEMENT_THEORY = SGP/SGP4

EPOCH          = 2026-03-19T20:20:48.814944
MEAN_MOTION    = 14.83006875
ECCENTRICITY   = .0001224
INCLINATION    = 98.0128
RA_OF_ASC_NODE = 107.3037
ARG_OF_PERICENTER = 23.1881
MEAN_ANOMALY   = 336.9387

EPHEMERIS_TYPE = 0
CLASSIFICATION_TYPE = U
NORAD_CAT_ID   = 41038
ELEMENT_SET_NO = 999
REV_AT_EPOCH   = 55738
BSTAR          = .63386E-4
MEAN_MOTION_DOT = .461E-5
MEAN_MOTION_DDOT = 0

CCSDS_OMM_VERS = 2.0
CREATION_DATE  = 
ORIGINATOR     = 

OBJECT_NAME    = ASTRO-H (HITOMI)
OBJECT_ID      = 2016-012A
CENTER_NAME    = EARTH
REF_FRAME      = TEME
TIME_SYSTEM    = UTC
MEAN_ELEMENT_THEORY = SGP/SGP4

EPOCH          = 2026-03-19T19:31:42.956832
MEAN_MOTION    = 15.10068181
ECCENTRICITY   = .0009618
INCLINATION    = 30.9993
RA_OF_ASC_NODE = 291.2126
ARG_OF_PERICENTER = 72.9706
MEAN_ANOMALY   = 287.1986

EPHEMERIS_TYPE = 0
CLASSIFICATION_TYPE = U
NORAD_CAT_ID   = 41337
ELEMENT_SET_NO = 999
REV_AT_EPOCH   = 55376
BSTAR          = .15439E-3
MEAN_MOTION_DOT = .2672E-4
MEAN_MOTION_DDOT = 0

CCSDS_OMM_VERS = 2.0
CREATION_DATE  = 
ORIGINATOR     = 

OBJECT_NAME    = HXMT (HUIYAN)
OBJECT_ID      = 2017-034A
CENTER_NAME    = EARTH
REF_FRAME      = TEME
TIME_SYSTEM    = UTC
MEAN_ELEMENT_THEORY = SGP/SGP4

EPOCH          = 2026-03-19T20:21:09.648576
MEAN_MOTION    = 15.17594679
ECCENTRICITY   = .0032981
INCLINATION    = 43.0150
RA_OF_ASC_NODE = 320.1929
ARG_OF_PERICENTER = 297.7654
MEAN_ANOMALY   = 61.9851

EPHEMERIS_TYPE = 0
CLASSIFICATION_TYPE = U
NORAD_CAT_ID   = 42758
ELEMENT_SET_NO = 999
REV_AT_EPOCH   = 48408
BSTAR          = .22814E-3
MEAN_MOTION_DOT = .4492E-4
MEAN_MOTION_DDOT = 0

CCSDS_OMM_VERS = 2.0
CREATION_DATE  = 
ORIGINATOR     = 

OBJECT_NAME    = SAOCOM 1A
OBJECT_ID      = 2018-076A
CENTER_NAME    = EARTH
REF_FRAME      = TEME
TIME_SYSTEM    = UTC
MEAN_ELEMENT_THEORY = SGP/SGP4

EPOCH          = 2026-03-19T19:40:12.482688
MEAN_MOTION    = 14.82153244
ECCENTRICITY   = .0001511
INCLINATION    = 97.8891
RA_OF_ASC_NODE = 266.8493
ARG_OF_PERICENTER = 87.0985
MEAN_ANOMALY   = 273.0401

EPHEMERIS_TYPE = 0
CLASSIFICATION_TYPE = U
NORAD_CAT_ID   = 43641
ELEMENT_SET_NO = 999
REV_AT_EPOCH   = 40286
BSTAR          = .1322E-3
MEAN_MOTION_DOT = .1E-4
MEAN_MOTION_DDOT = 0

CCSDS_OMM_VERS = 2.0
CREATION_DATE  = 
ORIGINATOR     = 

OBJECT_NAME    = H-2A R/B
OBJECT_ID      = 2018-084L
CENTER_NAME    = EARTH
REF_FRAME      = TEME
TIME_SYSTEM    = UTC
MEAN_ELEMENT_THEORY = SGP/SGP4

EPOCH          = 2026-03-19T03:28:27.542208
MEAN_MOTION    = 15.41735802
ECCENTRICITY   = .00246406
INCLINATION    = 98.8717
RA_OF_ASC_NODE = 297.5568
ARG_OF_PERICENTER = 352.8336
MEAN_ANOMALY   = 7.2550

EPHEMERIS_TYPE = 0
CLASSIFICATION_TYPE = U
NORAD_CAT_ID   = 43682
ELEMENT_SET_NO = 999
REV_AT_EPOCH   = 40723
BSTAR          = .4015335E-3
MEAN_MOTION_DOT = .17053E-3
MEAN_MOTION_DDOT = 0

CCSDS_OMM_VERS = 2.0
CREATION_DATE  = 
ORIGINATOR     = 

OBJECT_NAME    = SAOCOM 1B
OBJECT_ID      = 2020-059A
CENTER_NAME    = EARTH
REF_FRAME      = TEME
TIME_SYSTEM    = UTC
MEAN_ELEMENT_THEORY = SGP/SGP4

EPOCH          = 2026-03-19T20:25:09.179616
MEAN_MOTION    = 14.82145274
ECCENTRICITY   = .0001448
INCLINATION    = 97.8891
RA_OF_ASC_NODE = 265.9780
ARG_OF_PERICENTER = 88.0274
MEAN_ANOMALY   = 272.1105

EPHEMERIS_TYPE = 0
CLASSIFICATION_TYPE = U
NORAD_CAT_ID   = 46265
ELEMENT_SET_NO = 999
REV_AT_EPOCH   = 30025
BSTAR          = .51866E-5
MEAN_MOTION_DOT = -.11E-6
MEAN_MOTION_DDOT = 0

CCSDS_OMM_VERS = 2.0
CREATION_DATE  = 
ORIGINATOR     = 

OBJECT_NAME    = CSS (TIANHE)
OBJECT_ID      = 2021-035A
CENTER_NAME    = EARTH
REF_FRAME      = TEME
TIME_SYSTEM    = UTC
MEAN_ELEMENT_THEORY = SGP/SGP4

EPOCH          = 2026-03-19T15:10:53.399136
MEAN_MOTION    = 15.61180567
ECCENTRICITY   = .0005809
INCLINATION    = 41.4667
RA_OF_ASC_NODE = 147.6390
ARG_OF_PERICENTER = 335.1563
MEAN_ANOMALY   = 24.8996

EPHEMERIS_TYPE = 0
CLASSIFICATION_TYPE = U
NORAD_CAT_ID   = 48274
ELEMENT_SET_NO = 999
REV_AT_EPOCH   = 27916
BSTAR          = .23901E-3
MEAN_MOTION_DOT = .20528E-3
MEAN_MOTION_DDOT = 0

CCSDS_OMM_VERS = 2.0
CREATION_DATE  = 
ORIGINATOR     = 

OBJECT_NAME    = COSMOS 2550
OBJECT_ID      = 2021-056A
CENTER_NAME    = EARTH
REF_FRAME      = TEME
TIME_SYSTEM    = UTC
MEAN_ELEMENT_THEORY = SGP/SGP4

EPOCH          = 2026-03-19T21:14:52.770336
MEAN_MOTION    = 15.33828194
ECCENTRICITY   = .0008158
INCLINATION    = 67.1448
RA_OF_ASC_NODE = 10.0410
ARG_OF_PERICENTER = 269.3840
MEAN_ANOMALY   = 90.6380

EPHEMERIS_TYPE = 0
CLASSIFICATION_TYPE = U
NORAD_CAT_ID   = 48865
ELEMENT_SET_NO = 999
REV_AT_EPOCH   = 26502
BSTAR          = -.11889E-6
MEAN_MOTION_DOT = -.196E-5
MEAN_MOTION_DDOT = 0

CCSDS_OMM_VERS = 2.0
CREATION_DATE  = 
ORIGINATOR     = 

OBJECT_NAME    = CZ-2C R/B
OBJECT_ID      = 2022-058K
CENTER_NAME    = EARTH
REF_FRAME      = TEME
TIME_SYSTEM    = UTC
MEAN_ELEMENT_THEORY = SGP/SGP4

EPOCH          = 2026-03-19T19:07:06.284928
MEAN_MOTION    = 15.54922230
ECCENTRICITY   = .0041856
INCLINATION    = 50.1871
RA_OF_ASC_NODE = 266.2700
ARG_OF_PERICENTER = 243.9541
MEAN_ANOMALY   = 115.7118

EPHEMERIS_TYPE = 0
CLASSIFICATION_TYPE = U
NORAD_CAT_ID   = 52794
ELEMENT_SET_NO = 999
REV_AT_EPOCH   = 21170
BSTAR          = .42546E-3
MEAN_MOTION_DOT = .29784E-3
MEAN_MOTION_DDOT = 0

CCSDS_OMM_VERS = 2.0
CREATION_DATE  = 
ORIGINATOR     = 

OBJECT_NAME    = CZ-2C R/B
OBJECT_ID      = 2022-132E
CENTER_NAME    = EARTH
REF_FRAME      = TEME
TIME_SYSTEM    = UTC
MEAN_ELEMENT_THEORY = SGP/SGP4

EPOCH          = 2026-03-18T23:30:19.708992
MEAN_MOTION    = 15.62685246
ECCENTRICITY   = .00196684
INCLINATION    = 97.2955
RA_OF_ASC_NODE = 81.5839
ARG_OF_PERICENTER = 61.8989
MEAN_ANOMALY   = 298.4254

EPHEMERIS_TYPE = 0
CLASSIFICATION_TYPE = U
NORAD_CAT_ID   = 54039
ELEMENT_SET_NO = 999
REV_AT_EPOCH   = 19182
BSTAR          = .42931556E-3
MEAN_MOTION_DOT = .38816E-3
MEAN_MOTION_DDOT = 0

CCSDS_OMM_VERS = 2.0
CREATION_DATE  = 
ORIGINATOR     = 

OBJECT_NAME    = GSLV R/B
OBJECT_ID      = 2022-138AN
CENTER_NAME    = EARTH
REF_FRAME      = TEME
TIME_SYSTEM    = UTC
MEAN_ELEMENT_THEORY = SGP/SGP4

EPOCH          = 2026-03-19T17:58:26.267232
MEAN_MOTION    = 14.96838203
ECCENTRICITY   = .0023946
INCLINATION    = 87.3871
RA_OF_ASC_NODE = 162.9954
ARG_OF_PERICENTER = 113.1670
MEAN_ANOMALY   = 247.2088

EPHEMERIS_TYPE = 0
CLASSIFICATION_TYPE = U
NORAD_CAT_ID   = 54149
ELEMENT_SET_NO = 999
REV_AT_EPOCH   = 18543
BSTAR          = .1774E-3
MEAN_MOTION_DOT = .2072E-4
MEAN_MOTION_DDOT = 0

