ALOS-2                  
1 39766U 14029A   26078.86338966  .00001393  00000+0  19359-3 0  9994
2 39766  97.9195 177.3141 0001797 113.8460 246.2940 14.79412057638378
YAOGAN-29               
1 41038U 15069A   26078.84778721  .00000461  00000+0  63386-4 0  9994
2 41038  98.0128 107.3037 0001224  23.1881 336.9387 14.83006875557388
ASTRO-H (HITOMI)        
1 41337U 16012A   26078.81369163  .00002672  00000+0  15439-3 0  9999
2 41337  30.9993 291.2126 0009618  72.9706 287.1986 15.10068181553769
HXMT (HUIYAN)           
1 42758U 17034A   26078.84802834  .00004492  00000+0  22814-3 0  9999
2 42758  43.0150 320.1929 0032981 297.7654  61.9851 15.17594679484088
SAOCOM 1A               
1 43641U 18076A   26078.81958892  .00001000  00000+0  13220-3 0  9994
2 43641  97.8891 266.8493 0001511  87.0985 273.0401 14.82153244402866
H-2A R/B                
1 43682U 18084L   26078.14476322  .00017053  00000+0  40153-3 0  9997
2 43682  98.8717 297.5568 0024640 352.8336   7.2550 15.41735802407234
SAOCOM 1B               
1 46265U 20059A   26078.85080069 -.00000011  00000+0  51866-5 0  9991
2 46265  97.8891 265.9780 0001448  88.0274 272.1105 14.82145274300256
CSS (TIANHE)            
1 48274U 21035A   26078.63256249  .00020528  00000+0  23901-3 0  9990
2 48274  41.4667 147.6390 0005809 335.1563  24.8996 15.61180567279166
COSMOS 2550             
1 48865U 21056A   26078.88533299 -.00000196  00000+0 -11889-6 0  9995
2 48865  67.1448  10.0410 0008158 269.3840  90.6380 15.33828194265028
CZ-2C R/B               
1 52794U 22058K   26078.79660052  .00029784  00000+0  42546-3 0  9995
2 52794  50.1871 266.2700 0041856 243.9541 115.7118 15.54922230211704
CZ-2C R/B               
1 54039U 22132E   26077.97939478  .00038816  00000+0  42932-3 0  9997
2 54039  97.2955  81.5839 0019668  61.8989 298.4254 15.62685246191825
GSLV R/B                
1 54149U 22138AN  26078.74891513  .00002072  00000+0  17740-3 0  9992
2 54149  87.3871 162.9954 0023946 113.1670 247.2088 14.96838203185434
